ONEWEB-0387             
1 49313U 21090AL  25297.30849042  .00000034  00000+0  51107-4 0  9991
2 49313  87.9193 321.5145 0001829  84.4237 275.7105 13.20770099198685
ONEWEB-0388             
1 49314U 21090AM  25297.69343328 -.00000041  00000+0 -13437-3 0  9993
2 49314  87.9242 351.8325 0001713  97.6694 262.4633 13.19724251195359
ONEWEB-0389             
1 50469U 21132A   25297.72066265 -.00000038  00000+0 -13050-3 0  9996
2 50469  87.9124  52.6928 0001454  89.7488 270.3810 13.17648549187079
ONEWEB-0390             
1 50470U 21132B   25297.72234333  .00000007  00000+0 -15493-4 0  9990
2 50470  87.9118  52.6979 0001937  95.2732 264.8620 13.17647893187078
ONEWEB-0391             
1 50471U 21132C   25297.72403845 -.00000027  00000+0 -10210-3 0  9991
2 50471  87.9114  52.7081 0001653  70.5942 289.5368 13.17649491187073
ONEWEB-0392             
1 50472U 21132D   25297.60253307  .00000092  00000+0  20276-3 0  9998
2 50472  87.9120  52.6803 0001523  87.9413 272.1893 13.17649959187095
ONEWEB-0393             
1 50473U 21132E   25297.72754905 -.00000029  00000+0 -10889-3 0  9993
2 50473  87.9122  52.6764 0001566  94.8829 265.2482 13.17650549187105
ONEWEB-0394             
1 50474U 21132F   25297.72894123  .00000086  00000+0  18578-3 0  9995
2 50474  87.9229  22.1992 0001640  98.2120 261.9198 13.18686023190562
